{
    "links": {
        "self": "http://www.neowsapp.com/rest/v1/neo/3617960?api_key=iIulBulltgU6a56xZRHN4H3l9WmuAYTsLGpBGhQ2"
    },
    "id": "3617960",
    "neo_reference_id": "3617960",
    "name": "(2012 VK77)",
    "designation": "2012 VK77",
    "nasa_jpl_url": "http://ssd.jpl.nasa.gov/sbdb.cgi?sstr=3617960",
    "absolute_magnitude_h": 25.5,
    "estimated_diameter": {
        "kilometers": {
            "estimated_diameter_min": 0.0211132445,
            "estimated_diameter_max": 0.0472106499
        },
        "meters": {
            "estimated_diameter_min": 21.113244479,
            "estimated_diameter_max": 47.2106498806
        },
        "miles": {
            "estimated_diameter_min": 0.0131191578,
            "estimated_diameter_max": 0.0293353287
        },
        "feet": {
            "estimated_diameter_min": 69.2691770164,
            "estimated_diameter_max": 154.8905885541
        }
    },
    "is_potentially_hazardous_asteroid": false,
    "close_approach_data": [
        {
            "close_approach_date": "2012-11-29",
            "close_approach_date_full": "2012-Nov-29 03:34",
            "epoch_date_close_approach": 1354160040000,
            "relative_velocity": {
                "kilometers_per_second": "5.5150593399",
                "kilometers_per_hour": "19854.2136235499",
                "miles_per_hour": "12336.6362373663"
            },
            "miss_distance": {
                "astronomical": "0.0816914406",
                "lunar": "31.7779703934",
                "kilometers": "12220865.510991522",
                "miles": "7593693.7042741236"
            },
            "orbiting_body": "Earth"
        }
    ],
    "orbital_data": {
        "orbit_id": "9",
        "orbit_determination_date": "2017-04-06 08:47:59",
        "first_observation_date": "2012-11-14",
        "last_observation_date": "2012-12-22",
        "data_arc_in_days": 38,
        "observations_used": 29,
        "orbit_uncertainty": "7",
        "minimum_orbit_intersection": ".078262",
        "jupiter_tisserand_invariant": "3.485",
        "epoch_osculation": "2459000.5",
        "eccentricity": ".5149904214840531",
        "semi_major_axis": "2.192759696882251",
        "inclination": "2.130169680499194",
        "ascending_node_longitude": "65.49392459416234",
        "orbital_period": "1186.000814323198",
        "perihelion_distance": "1.063509456371616",
        "perihelion_argument": "6.357527482490139",
        "aphelion_distance": "3.322009937392886",
        "perihelion_time": "2458638.212971581319",
        "mean_anomaly": "109.9690056327257",
        "mean_motion": ".3035411069303836",
        "equinox": "J2000",
        "orbit_class": {
            "orbit_class_type": "AMO",
            "orbit_class_description": "Near-Earth asteroid orbits similar to that of 1221 Amor",
            "orbit_class_range": "1.017 AU < q (perihelion) < 1.3 AU"
        }
    },
    "is_sentry_object": false
}